NORAD_CAT_ID,OBJECT_NAME,OBJECT_TYPE,EPOCH,MEAN_MOTION,ECCENTRICITY,INCLINATION,RA_OF_ASC_NODE,ARG_OF_PERICENTER,MEAN_ANOMALY,BSTAR,MEAN_MOTION_DOT,MEAN_MOTION_DDOT,TLE_LINE0,TLE_LINE1,TLE_LINE2,SEMIMAJOR_AXIS,PERIOD,APOGEE,PERIGEE,DECAYED
53138.0,STARLINK-4141,PAYLOAD,2022-07-30 22:00:00,15.73205636,0.0001447,53.2171,340.4002,43.2666,211.7577,-1.6543e-05,-2.942e-05,0.0,0 STARLINK-4141,1 53138U 22083G   22211.91667824 -.00002942  00000-0 -16543-4 0  9998,2 53138  53.2171 340.4002 0001447  43.2666 211.7577 15.73205636  1309,6727.879,91.533,350.718,348.771,0.0
53138.0,STARLINK-4141,PAYLOAD,2022-07-31 06:00:02,15.73238926,0.0001517,53.2168,338.7374,45.2531,298.8093,-0.00013553,-0.00019629,0.0,0 STARLINK-4141,1 53138U 22083G   22212.25002315 -.00019629  00000-0 -13553-3 0  9991,2 53138  53.2168 338.7374 0001517  45.2531 298.8093 15.73238926  2801,6727.784000000002,91.531,350.67,348.629,0.0
53138.0,STARLINK-4141,PAYLOAD,2022-07-31 14:00:01,15.73229581,0.000177,53.2175,337.0932,44.6376,28.3226,1.8687e-05,2.006e-05,0.0,0 STARLINK-4141,1 53138U 22083G   22212.58334491  .00002006  00000-0  18687-4 0  9993,2 53138  53.2175 337.0932 0001770  44.6376  28.3226 15.73229581  1307,6727.811,91.531,350.867,348.485,0.0
53138.0,STARLINK-4141,PAYLOAD,2022-07-31 20:00:01,15.73206435,0.0001771999999999,53.217,335.8534,36.0492,13.5851,-0.00030732,-0.00043542,0.0,0 STARLINK-4141,1 53138U 22083G   22212.83334491 -.00043542  00000-0 -30732-3 0  9997,2 53138  53.2170 335.8534 0001772  36.0492  13.5851 15.73206435  2890,6727.877,91.533,350.934,348.55,0.0
53138.0,STARLINK-4141,PAYLOAD,2022-07-31 22:00:00,15.73210337,0.0001724,53.2171,335.4406,36.0713,125.7934,-0.00050002,-0.00070246,0.0,0 STARLINK-4141,1 53138U 22083G   22212.91667824 -.00070246  00000-0 -50002-3 0  9998,2 53138  53.2171 335.4406 0001724  36.0713 125.7934 15.73210337  1307,6727.866,91.533,350.891,348.571,0.0
53138.0,STARLINK-4141,PAYLOAD,2022-08-01 14:00:01,15.73201706,0.0001788,53.2171,332.1417,36.4007,303.2861,2.1111e-05,2.343e-05,0.0,0 STARLINK-4141,1 53138U 22083G   22213.58334491  .00002343  00000-0  21111-4 0  9994,2 53138  53.2171 332.1417 0001788  36.4007 303.2861 15.73201706  3015,6727.89,91.533,350.958,348.552,0.0
53138.0,STARLINK-4141,PAYLOAD,2022-08-01 22:00:00,15.73225757,0.0001827,53.2165,330.4921,33.8753,34.7392,3.3279e-05,4.057e-05,0.0,0 STARLINK-4141,1 53138U 22083G   22213.91667824  .00004057  00000-0  33279-4 0  9992,2 53138  53.2165 330.4921 0001827  33.8753  34.7392 15.73225757  1309,6727.821999999999,91.532,350.916,348.458,0.0
53138.0,STARLINK-4141,PAYLOAD,2022-08-02 06:00:02,15.73220006,0.0001554,53.2166,328.841,38.9314,118.7078,0.00030281,0.00042127,0.0,0 STARLINK-4141,1 53138U 22083G   22214.25002315  .00042127  00000-0  30281-3 0  9997,2 53138  53.2166 328.8410 0001554  38.9314 118.7078 15.73220006  3128,6727.8380000000025,91.532,350.749,348.658,0.0
53138.0,STARLINK-4141,PAYLOAD,2022-08-02 14:00:01,15.73240461,0.0001733999999999,53.2167,327.1935,30.8939,215.6646,-0.00046635,-0.00065677,0.0,0 STARLINK-4141,1 53138U 22083G   22214.58334491 -.00065677  00000-0 -46635-3 0  9993,2 53138  53.2167 327.1935 0001734  30.8939 215.6646 15.73240461  1300,6727.78,91.531,350.811,348.478,0.0
53138.0,STARLINK-4141,PAYLOAD,2022-08-03 04:00:00,15.73181295,0.0001685,53.2169,324.305,33.5937,278.6283,-4.737e-05,-7.258e-05,0.0,0 STARLINK-4141,1 53138U 22083G   22215.16667824 -.00007258  00000-0 -47370-4 0  9996,2 53138  53.2169 324.3050 0001685  33.5937 278.6283 15.73181295  3264,6727.949000000001,91.534,350.94699999999995,348.68,0.0
53138.0,STARLINK-4141,PAYLOAD,2022-08-03 12:00:00,15.73200215,0.0001934,53.2169,322.6568,34.8287,6.308,-5.3995e-05,-8.192e-05,0.0,0 STARLINK-4141,1 53138U 22083G   22215.50001157 -.00008192  00000-0 -53995-4 0  9993,2 53138  53.2169 322.6568 0001934  34.8287   6.3080 15.73200215  3319,6727.895,91.533,351.061,348.458,0.0
53138.0,STARLINK-4141,PAYLOAD,2022-08-03 14:00:01,15.73191399,0.0002025,53.2167,322.2448,33.8828,119.487,0.00010311,0.00013869,0.0,0 STARLINK-4141,1 53138U 22083G   22215.58334491  .00013869  00000-0  10311-3 0  9990,2 53138  53.2167 322.2448 0002025  33.8828 119.4870 15.73191399  1304,6727.92,91.534,351.147,348.422,0.0
53138.0,STARLINK-4141,PAYLOAD,2022-08-03 22:00:01,15.73227436,0.000198,53.2161,320.5948,32.3302,210.0208,-6.8797e-05,-0.00010277,0.0,0 STARLINK-4141,1 53138U 22083G   22215.91668981 -.00010277  00000-0 -68797-4 0  9995,2 53138  53.2161 320.5948 0001980  32.3302 210.0208 15.73227436  1309,6727.816999999999,91.532,351.014,348.35,0.0
53138.0,STARLINK-4141,PAYLOAD,2022-08-04 06:00:00,15.7323402,0.000173,53.2164,318.9439,34.4795,296.7582,-0.00031683,-0.00044915,0.0,0 STARLINK-4141,1 53138U 22083G   22216.25001157 -.00044915  00000-0 -31683-3 0  9998,2 53138  53.2164 318.9439 0001730  34.4795 296.7582 15.73234020  3439,6727.7980000000025,91.531,350.827,348.499,0.0
53138.0,STARLINK-4141,PAYLOAD,2022-08-04 14:00:01,15.73189189,0.0001939,53.2164,317.2965,27.8138,32.38,0.00011137,0.00015031,0.0,0 STARLINK-4141,1 53138U 22083G   22216.58334491  .00015031  00000-0  11137-3 0  9991,2 53138  53.2164 317.2965 0001939  27.8138  32.3800 15.73189189  1309,6727.926,91.534,351.096,348.486,0.0
53138.0,STARLINK-4141,PAYLOAD,2022-08-04 20:00:01,15.73226523,0.0002068,53.2163,316.0591,26.1132,10.7648,-0.00021441,-0.0003063999999999,0.0,0 STARLINK-4141,1 53138U 22083G   22216.83334491 -.00030640  00000-0 -21441-3 0  9993,2 53138  53.2163 316.0591 0002068  26.1132  10.7648 15.73226523  3520,6727.82,91.532,351.076,348.293,0.0
53138.0,STARLINK-4141,PAYLOAD,2022-08-04 22:00:00,15.7325468,0.0002009999999999,53.2165,315.6461,28.7555,120.3524,-0.00075601,-0.00105657,0.0,0 STARLINK-4141,1 53138U 22083G   22216.91667824 -.00105657  00000-0 -75601-3 0  9999,2 53138  53.2165 315.6461 0002010  28.7555 120.3524 15.73254680  1307,6727.739000000001,91.53,350.957,348.25199999999984,0.0
53138.0,STARLINK-4141,PAYLOAD,2022-08-05 14:00:01,15.73192793,0.0002299999999999,53.2166,312.3476,34.1192,292.9249,0.0001695,0.00023227,0.0,0 STARLINK-4141,1 53138U 22083G   22217.58335648  .00023227  00000-0  16950-3 0  9991,2 53138  53.2166 312.3476 0002300  34.1192 292.9249 15.73192793  1304,6727.916,91.534,351.32800000000015,348.233,0.0
53138.0,STARLINK-4141,PAYLOAD,2022-08-05 20:00:01,15.732247199999998,0.0002273,53.2161,311.1101,31.0802,272.6596,0.0001220999999999,0.00016568,0.0,0 STARLINK-4141,1 53138U 22083G   22217.83335648  .00016568  00000-0  12210-3 0  9994,2 53138  53.2161 311.1101 0002273  31.0802 272.6596 15.73224720  3683,6727.825,91.532,351.219,348.16,0.0
53138.0,STARLINK-4141,PAYLOAD,2022-08-05 22:00:00,15.73242012,0.0002205,53.2162,310.6972,32.2839,23.6261,-0.00010302,-0.00015082,0.0,0 STARLINK-4141,1 53138U 22083G   22217.91667824 -.00015082  00000-0 -10302-3 0  9999,2 53138  53.2162 310.6972 0002205  32.2839  23.6261 15.73242012  1306,6727.775,91.531,351.124,348.157,0.0
53138.0,STARLINK-4141,PAYLOAD,2022-08-06 13:00:37,15.73223532,0.0002131999999999,53.2165,307.6009,29.007,331.1068,5.9974e-05,7.812e-05,0.0,0 STARLINK-4141,1 53138U 22083G   22218.54210303  .00007812  00000-0  59974-4 0  9994,2 53138  53.2165 307.6009 0002132  29.0070 331.1068 15.73223532  3799,6727.828,91.532,351.12699999999984,348.259,0.0
53138.0,STARLINK-4141,PAYLOAD,2022-08-06 14:00:01,15.73220778,0.0002163,53.2165,307.3991,25.9783,207.8491,-0.00036979,-0.00052249,0.0,0 STARLINK-4141,1 53138U 22083G   22218.58334491 -.00052249  00000-0 -36979-3 0  9998,2 53138  53.2165 307.3991 0002163  25.9783 207.8491 15.73220778  1309,6727.8359999999975,91.532,351.156,348.246,0.0
53138.0,STARLINK-4141,PAYLOAD,2022-08-06 20:00:01,15.73199358,0.0002154,53.2164,306.1614,21.8171,188.7185,-0.0002194,-0.0003129999999999,0.0,0 STARLINK-4141,1 53138U 22083G   22218.83334491 -.00031300  00000-0 -21940-3 0  9993,2 53138  53.2164 306.1614 0002154  21.8171 188.7185 15.73199358  3840,6727.897,91.533,351.211,348.31300000000016,0.0
53138.0,STARLINK-4141,PAYLOAD,2022-08-06 22:00:00,15.73193245,0.000207,53.2167,305.7484,21.6244,301.1407,-0.00013131,-0.00019004,0.0,0 STARLINK-4141,1 53138U 22083G   22218.91667824 -.00019004  00000-0 -13131-3 0  9991,2 53138  53.2167 305.7484 0002070  21.6244 301.1407 15.73193245  1305,6727.9140000000025,91.534,351.172,348.38699999999994,0.0
53138.0,STARLINK-4141,PAYLOAD,2022-08-07 11:52:50,15.73216482,0.0002615,53.2176,302.8851,22.6994,337.4142,0.0001827,0.00025117,0.0,0 STARLINK-4141,1 53138U 22083G   22219.49502625  .00025117  00000-0  18270-3 0  9991,2 53138  53.2176 302.8851 0002615  22.6994 337.4142 15.73216482  4095,6727.848000000001,91.532,351.473,347.954,0.0
53138.0,STARLINK-4141,PAYLOAD,2022-08-07 12:00:00,15.73225972,0.0002262,53.217,302.8625,22.1848,6.178999999999999,-0.00022861,-0.00032621,0.0,0 STARLINK-4141,1 53138U 22083G   22219.50001157 -.00032621  00000-0 -22861-3 0  9998,2 53138  53.2170 302.8625 0002262  22.1848   6.1790 15.73225972  3945,6727.821,91.532,351.208,348.164,0.0
53138.0,STARLINK-4141,PAYLOAD,2022-08-07 20:00:01,15.73223391,0.0002258,53.2165,301.2126,17.9681,99.3584,-0.00022976,-0.00032777,0.0,0 STARLINK-4141,1 53138U 22083G   22219.83334491 -.00032777  00000-0 -22976-3 0  9993,2 53138  53.2165 301.2126 0002258  17.9681  99.3584 15.73223391  3993,6727.828,91.532,351.213,348.1740000000001,0.0
53138.0,STARLINK-4141,PAYLOAD,2022-08-07 22:00:00,15.73214596,0.0002169,53.2166,300.7997,17.7001,211.8636,-0.00010199,-0.0001492,0.0,0 STARLINK-4141,1 53138U 22083G   22219.91667824 -.00014920  00000-0 -10199-3 0  9995,2 53138  53.2166 300.7997 0002169  17.7001 211.8636 15.73214596  1308,6727.854,91.532,351.17800000000005,348.259,0.0
53138.0,STARLINK-4141,PAYLOAD,2022-08-08 04:00:00,15.73202261,0.0002026,53.2166,299.5616,19.9431,186.335,0.0006134,0.00086368,0.0,0 STARLINK-4141,1 53138U 22083G   22220.16667824  .00086368  00000-0  61340-3 0  9991,2 53138  53.2166 299.5616 0002026  19.9431 186.3350 15.73202261  4054,6727.889,91.533,351.117,348.391,0.0
